{"type": "FeatureCollection", "features": [ {"type": "Feature", "properties": {"norad_id": 39620, "name": "COSMOS 2492 (754)", "group": "gnss", "lat": 31.654709164556618, "lon": -23.836721080449617, "alt_km": 19120.546816005422, "timestamp": "2025-12-27T03:58:44.397993+00:00", "meta": {"OBJECT_NAME": "COSMOS 2492 (754)", "OBJECT_ID": "2014-012A", "EPOCH": "2025-12-26T15:36:55.855008", "MEAN_MOTION": 2.13103318, "ECCENTRICITY": 0.0014326, "INCLINATION": 65.4001, "RA_OF_ASC_NODE": 319.7994, "ARG_OF_PERICENTER": 314.1039, "MEAN_ANOMALY": 45.7823, "EPHEMERIS_TYPE": 0, "CLASSIFICATION_TYPE": "U", "NORAD_CAT_ID": 39620, "ELEMENT_SET_NO": 999, "REV_AT_EPOCH": 9156, "BSTAR": 0, "MEAN_MOTION_DOT": -3.5e-07, "MEAN_MOTION_DDOT": 0}, "tle": {"line1": "1 39620U 14012A   25360.65064647 -.00000035  00000+0  00000+0 0  9999", "line2": "2 39620  65.4001 319.7994 0014326 314.1039  45.7823  2.13103318 91569"}}, "geometry": {"type": "Point", "coordinates": [-23.836721080449617, 31.654709164556618]}}, {"type": "Feature", "properties": {"norad_id": 39635, "name": "IRNSS-1B", "group": "gnss", "lat": -15.271320441123429, "lon": -145.80421929981543, "alt_km": 35857.488838406396, "timestamp": "2025-12-27T03:58:44.398003+00:00", "meta": {"OBJECT_NAME": "IRNSS-1B", "OBJECT_ID": "2014-017A", "EPOCH": "2025-12-24T18:29:47.559840", "MEAN_MOTION": 1.00272104, "ECCENTRICITY": 0.00185731, "INCLINATION": 29.2343, "RA_OF_ASC_NODE": 243.3872, "ARG_OF_PERICENTER": 174.7097, "MEAN_ANOMALY": 8.021, "EPHEMERIS_TYPE": 0, "CLASSIFICATION_TYPE": "U", "NORAD_CAT_ID": 39635, "ELEMENT_SET_NO": 999, "REV_AT_EPOCH": 4304, "BSTAR": 0, "MEAN_MOTION_DOT": 1.4e-06, "MEAN_MOTION_DDOT": 0}, "tle": {"line1": "1 39635U 14017A   25358.77068935  .00000140  00000+0  00000+0 0  9990", "line2": "2 39635  29.2343 243.3872 0018573 174.7097   8.0210  1.00272104 43048"}}, "geometry": {"type": "Point", "coordinates": [-145.80421929981543, -15.271320441123429]}}, {"type": "Feature", "properties": {"norad_id": 39727, "name": "LUCH 5V (SDCM/PRN 141)", "group": "gnss", "lat": 0.07691014827344429, "lon": -109.68634908176514, "alt_km": 35772.54961854172, "timestamp": "2025-12-27T03:58:44.398014+00:00", "meta": {"OBJECT_NAME": "LUCH 5V (SDCM/PRN 141)", "OBJECT_ID": "2014-023A", "EPOCH": "2025-12-26T20:14:04.970976", "MEAN_MOTION": 1.00273298, "ECCENTRICITY": 0.0003833, "INCLINATION": 4.7031, "RA_OF_ASC_NODE": 71.4175, "ARG_OF_PERICENTER": 214.8808, "MEAN_ANOMALY": 207.5564, "EPHEMERIS_TYPE": 0, "CLASSIFICATION_TYPE": "U", "NORAD_CAT_ID": 39727, "ELEMENT_SET_NO": 999, "REV_AT_EPOCH": 4263, "BSTAR": 0, "MEAN_MOTION_DOT": -2.49e-06, "MEAN_MOTION_DDOT": 0}, "tle": {"line1": "1 39727U 14023A   25360.84311309 -.00000249  00000+0  00000+0 0  9997", "line2": "2 39727   4.7031  71.4175 0003833 214.8808 207.5564  1.00273298 42634"}}, "geometry": {"type": "Point", "coordinates": [-109.68634908176514, 0.07691014827344429]}}, {"type": "Feature", "properties": {"norad_id": 39741, "name": "GPS BIIF-6  (PRN 06)", "group": "gnss", "lat": 22.02759492117529, "lon": 142.71297593494677, "alt_km": 20281.8437565687, "timestamp": "2025-12-27T03:58:44.398025+00:00", "meta": {"OBJECT_NAME": "GPS BIIF-6  (PRN 06)", "OBJECT_ID": "2014-026A", "EPOCH": "2025-12-25T22:56:21.833664", "MEAN_MOTION": 2.00560326, "ECCENTRICITY": 0.00395057, "INCLINATION": 56.5784, "RA_OF_ASC_NODE": 338.2626, "ARG_OF_PERICENTER": 319.4307, "MEAN_ANOMALY": 40.2828, "EPHEMERIS_TYPE": 0, "CLASSIFICATION_TYPE": "U", "NORAD_CAT_ID": 39741, "ELEMENT_SET_NO": 999, "REV_AT_EPOCH": 8506, "BSTAR": 0, "MEAN_MOTION_DOT": -5.7e-07, "MEAN_MOTION_DDOT": 0}, "tle": {"line1": "1 39741U 14026A   25359.95580826 -.00000057  00000+0  00000+0 0  9995", "line2": "2 39741  56.5784 338.2626 0039505 319.4307  40.2828  2.00560326 85067"}}, "geometry": {"type": "Point", "coordinates": [142.71297593494677, 22.02759492117529]}}, {"type": "Feature", "properties": {"norad_id": 40001, "name": "COSMOS 2500 (755)", "group": "gnss", "lat": -64.49306482079298, "lon": -146.23642667710573, "alt_km": 19122.124300097512, "timestamp": "2025-12-27T03:58:44.398035+00:00", "meta": {"OBJECT_NAME": "COSMOS 2500 (755)", "OBJECT_ID": "2014-032A", "EPOCH": "2025-12-26T08:28:54.444288", "MEAN_MOTION": 2.13106178, "ECCENTRICITY": 0.0007619, "INCLINATION": 65.3358, "RA_OF_ASC_NODE": 319.5702, "ARG_OF_PERICENTER": 219.616, "MEAN_ANOMALY": 140.3327, "EPHEMERIS_TYPE": 0, "CLASSIFICATION_TYPE": "U", "NORAD_CAT_ID": 40001, "ELEMENT_SET_NO": 999, "REV_AT_EPOCH": 8977, "BSTAR": 0, "MEAN_MOTION_DOT": -3.4e-07, "MEAN_MOTION_DDOT": 0}, "tle": {"line1": "1 40001U 14032A   25360.35340792 -.00000034  00000+0  00000+0 0  9990", "line2": "2 40001  65.3358 319.5702 0007619 219.6160 140.3327  2.13106178 89772"}}, "geometry": {"type": "Point", "coordinates": [-146.23642667710573, -64.49306482079298]}}, {"type": "Feature", "properties": {"norad_id": 40105, "name": "GPS BIIF-7  (PRN 09)", "group": "gnss", "lat": 55.23363329201501, "lon": -172.37201920708236, "alt_km": 20099.618873145377, "timestamp": "2025-12-27T03:58:44.398046+00:00", "meta": {"OBJECT_NAME": "GPS BIIF-7  (PRN 09)", "OBJECT_ID": "2014-045A", "EPOCH": "2025-12-23T13:11:32.096256", "MEAN_MOTION": 2.00573211, "ECCENTRICITY": 0.00324114, "INCLINATION": 55.2352, "RA_OF_ASC_NODE": 95.4677, "ARG_OF_PERICENTER": 120.1575, "MEAN_ANOMALY": 240.1743, "EPHEMERIS_TYPE": 0, "CLASSIFICATION_TYPE": "U", "NORAD_CAT_ID": 40105, "ELEMENT_SET_NO": 999, "REV_AT_EPOCH": 8255, "BSTAR": 0, "MEAN_MOTION_DOT": 8e-08, "MEAN_MOTION_DDOT": 0}, "tle": {"line1": "1 40105U 14045A   25357.54967704  .00000008  00000+0  00000+0 0  9994", "line2": "2 40105  55.2352  95.4677 0032411 120.1575 240.1743  2.00573211 82556"}}, "geometry": {"type": "Point", "coordinates": [-172.37201920708236, 55.23363329201501]}}, {"type": "Feature", "properties": {"norad_id": 40128, "name": "GSAT0201 (GALILEO 5)", "group": "gnss", "lat": 26.01922775222705, "lon": 75.43655003136965, "alt_km": 17377.98180292951, "timestamp": "2025-12-27T03:58:44.398057+00:00", "meta": {"OBJECT_NAME": "GSAT0201 (GALILEO 5)", "OBJECT_ID": "2014-050A", "EPOCH": "2025-12-25T20:43:24.583008", "MEAN_MOTION": 1.85519608, "ECCENTRICITY": 0.16491868, "INCLINATION": 49.0615, "RA_OF_ASC_NODE": 280.5285, "ARG_OF_PERICENTER": 172.7701, "MEAN_ANOMALY": 189.9925, "EPHEMERIS_TYPE": 0, "CLASSIFICATION_TYPE": "U", "NORAD_CAT_ID": 40128, "ELEMENT_SET_NO": 999, "REV_AT_EPOCH": 7510, "BSTAR": 0, "MEAN_MOTION_DOT": -4.2e-07, "MEAN_MOTION_DDOT": 0}, "tle": {"line1": "1 40128U 14050A   25359.86347897 -.00000042  00000+0  00000+0 0  9996", "line2": "2 40128  49.0615 280.5285 1649186 172.7701 189.9925  1.85519608 75101"}}, "geometry": {"type": "Point", "coordinates": [75.43655003136965, 26.01922775222705]}}, {"type": "Feature", "properties": {"norad_id": 40129, "name": "GSAT0202 (GALILEO 6)", "group": "gnss", "lat": -11.634106026920081, "lon": -90.72071957106118, "alt_km": 26144.307168285595, "timestamp": "2025-12-27T03:58:44.398069+00:00", "meta": {"OBJECT_NAME": "GSAT0202 (GALILEO 6)", "OBJECT_ID": "2014-050B", "EPOCH": "2025-12-26T02:52:20.313984", "MEAN_MOTION": 1.85520261, "ECCENTRICITY": 0.1649751, "INCLINATION": 49.0773, "RA_OF_ASC_NODE": 279.6017, "ARG_OF_PERICENTER": 173.5155, "MEAN_ANOMALY": 188.9707, "EPHEMERIS_TYPE": 0, "CLASSIFICATION_TYPE": "U", "NORAD_CAT_ID": 40129, "ELEMENT_SET_NO": 999, "REV_AT_EPOCH": 7727, "BSTAR": 0, "MEAN_MOTION_DOT": -4.2e-07, "MEAN_MOTION_DDOT": 0}, "tle": {"line1": "1 40129U 14050B   25360.11967956 -.00000042  00000+0  00000+0 0  9991", "line2": "2 40129  49.0773 279.6017 1649751 173.5155 188.9707  1.85520261 77273"}}, "geometry": {"type": "Point", "coordinates": [-90.72071957106118, -11.634106026920081]}}, {"type": "Feature", "properties": {"norad_id": 40269, "name": "IRNSS-1C", "group": "gnss", "lat": 3.3482577406394842, "lon": -121.11919469247574, "alt_km": 35848.618786735424, "timestamp": "2025-12-27T03:58:44.398080+00:00", "meta": {"OBJECT_NAME": "IRNSS-1C", "OBJECT_ID": "2014-061A", "EPOCH": "2025-12-26T18:35:45.832128", "MEAN_MOTION": 1.00272984, "ECCENTRICITY": 0.0018128, "INCLINATION": 6.0777, "RA_OF_ASC_NODE": 92.3405, "ARG_OF_PERICENTER": 0.7543, "MEAN_ANOMALY": 4.3882, "EPHEMERIS_TYPE": 0, "CLASSIFICATION_TYPE": "U", "NORAD_CAT_ID": 40269, "ELEMENT_SET_NO": 999, "REV_AT_EPOCH": 4096, "BSTAR": 0, "MEAN_MOTION_DOT": -1.42e-06, "MEAN_MOTION_DDOT": 0}, "tle": {"line1": "1 40269U 14061A   25360.77483602 -.00000142  00000+0  00000+0 0  9992", "line2": "2 40269   6.0777  92.3405 0018128   0.7543   4.3882  1.00272984 40969"}}, "geometry": {"type": "Point", "coordinates": [-121.11919469247574, 3.3482577406394842]}}, {"type": "Feature", "properties": {"norad_id": 40294, "name": "GPS BIIF-8  (PRN 03)", "group": "gnss", "lat": -0.1793627823108925, "lon": -142.28072078312562, "alt_km": 20240.307932929405, "timestamp": "2025-12-27T03:58:44.398090+00:00", "meta": {"OBJECT_NAME": "GPS BIIF-8  (PRN 03)", "OBJECT_ID": "2014-068A", "EPOCH": "2025-12-26T10:04:05.409984", "MEAN_MOTION": 2.00565591, "ECCENTRICITY": 0.0060863, "INCLINATION": 56.8679, "RA_OF_ASC_NODE": 37.6169, "ARG_OF_PERICENTER": 68.8991, "MEAN_ANOMALY": 291.813, "EPHEMERIS_TYPE": 0, "CLASSIFICATION_TYPE": "U", "NORAD_CAT_ID": 40294, "ELEMENT_SET_NO": 999, "REV_AT_EPOCH": 8174, "BSTAR": 0, "MEAN_MOTION_DOT": -4.9e-07, "MEAN_MOTION_DDOT": 0}, "tle": {"line1": "1 40294U 14068A   25360.41950706 -.00000049  00000+0  00000+0 0  9998", "line2": "2 40294  56.8679  37.6169 0060863  68.8991 291.8130  2.00565591 81745"}}, "geometry": {"type": "Point", "coordinates": [-142.28072078312562, -0.1793627823108925]}}]}